[{"OBJECT_NAME":"YAM-7","OBJECT_ID":"2024-149AN","EPOCH":"2026-03-09T17:13:55.117920","MEAN_MOTION":15.30304554,"ECCENTRICITY":0.00019733,"INCLINATION":97.3828,"RA_OF_ASC_NODE":149.4631,"ARG_OF_PERICENTER":296.5121,"MEAN_ANOMALY":63.5918,"EPHEMERIS_TYPE":0,"CLASSIFICATION_TYPE":"U","NORAD_CAT_ID":60504,"ELEMENT_SET_NO":999,"REV_AT_EPOCH":8683,"BSTAR":0.00030984439,"MEAN_MOTION_DOT":9.009e-5,"MEAN_MOTION_DDOT":0},{"OBJECT_NAME":"STARLINK-35118","OBJECT_ID":"2025-281L","EPOCH":"2026-03-08T04:20:25.795968","MEAN_MOTION":15.27631687,"ECCENTRICITY":0.00016019,"INCLINATION":43.0039,"RA_OF_ASC_NODE":352.0942,"ARG_OF_PERICENTER":279.6952,"MEAN_ANOMALY":80.3719,"EPHEMERIS_TYPE":0,"CLASSIFICATION_TYPE":"U","NORAD_CAT_ID":66858,"ELEMENT_SET_NO":999,"REV_AT_EPOCH":1595,"BSTAR":0.0014204283,"MEAN_MOTION_DOT":0.00039094,"MEAN_MOTION_DDOT":0}]
